IRIDIUM 39              
1 25042U 97069D   25347.91222469  .00001069  00000+0  27300-3 0  9990
2 25042  86.3917 134.1287 0019586  68.7753 291.5541 14.49507624474992
IRIDIUM 38              
1 25043U 97069E   25347.95176802  .00000688  00000+0  21964-3 0  9990
2 25043  86.3971 157.5981 0001392 156.4203 203.7059 14.38315202471795
IRIDIUM 42              
1 25077U 97077A   25347.97044943  .00000622  00000+0  20543-3 0  9998
2 25077  86.3978 163.9790 0001324 102.5068 257.6278 14.36533209467001
IRIDIUM 44              
1 25078U 97077B   25347.99504928  .00000574  00000+0  17443-3 0  9996
2 25078  86.3967 145.4259 0003288 122.3577 237.7941 14.40433487469584
IRIDIUM 45              
1 25104U 97082A   25347.98250518  .00034660  00000+0  97745-3 0  9990
2 25104  86.3538 320.0663 0099240  16.4328 344.0097 15.31356581479460
IRIDIUM 24              
1 25105U 97082B   25348.01223074  .00000657  00000+0  19287-3 0  9997
2 25105  86.3910   4.0124 0010694 192.8254 167.2676 14.42329047469138
IRIDIUM 51              
1 25262U 98018A   25347.99045674  .00103520  00000+0  10945-2 0  9999
2 25262  86.3726 325.6026 0047016 269.0705  90.5174 15.62424451474849
IRIDIUM 57              
1 25273U 98019B   25347.95667844  .00000477  00000+0  15741-3 0  9994
2 25273  86.3957  69.8796 0002089  98.0439 262.0995 14.36052646450588
